start=new Date('2022-11-27T00:00:00.000Z').valueOf();
sats=[{"FILE":"3671048","LAUNCH_DATE":"2020-10-18","CLASSIFICATION_TYPE":"U","COUNTRY_CODE":"US","GP_ID":"218889484","MEAN_ANOMALY":"292.0118","PERIOD":"95.591","APOAPSIS":"548.489","MEAN_ELEMENT_THEORY":"SGP4","NORAD_CAT_ID":"46725","SITE":"AFETR","EPOCH":"2022-11-26T18:06:35.702496","TLE_LINE1":"1 46725U 20073BH  22330.75457989  .00002222  00000-0  16795-3 0  9999","MEAN_MOTION_DOT":"0.00002222","ARG_OF_PERICENTER":"68.1074","OBJECT_NAME":"STARLINK-1828","REV_AT_EPOCH":"11621","TLE_LINE2":"2 46725  53.0561 238.8563 0001902  68.1074 292.0118 15.06413759116214","ELEMENT_SET_NO":"999","ECCENTRICITY":"0.00019020","MEAN_MOTION_DDOT":"0.0000000000000","PERIAPSIS":"545.854","REF_FRAME":"TEME","INCLINATION":"53.0561","CENTER_NAME":"EARTH","OBJECT_ID":"2020-073BH","RA_OF_ASC_NODE":"238.8563","RCS_SIZE":"LARGE","BSTAR":"0.00016795000000","EPHEMERIS_TYPE":"0","SEMIMAJOR_AXIS":"6925.306","OBJECT_TYPE":"PAYLOAD","DECAY_DATE":null,"MEAN_MOTION":"15.06413759","TIME_SYSTEM":"UTC"},{"REF_FRAME":"TEME","PERIAPSIS":"546.265","MEAN_MOTION_DDOT":"0.0000000000000","TLE_LINE2":"2 46726  53.0542 224.0297 0001347 103.9207 256.1932 15.06405217116411","ELEMENT_SET_NO":"999","ECCENTRICITY":"0.00013470","OBJECT_NAME":"STARLINK-1829","REV_AT_EPOCH":"11641","MEAN_MOTION_DOT":"0.00001604","ARG_OF_PERICENTER":"103.9207","TLE_LINE1":"1 46726U 20073BJ  22330.71263134  .00001604  00000-0  12650-3 0  9992","EPOCH":"2022-11-26T17:06:11.347776","NORAD_CAT_ID":"46726","SITE":"AFETR","MEAN_ELEMENT_THEORY":"SGP4","APOAPSIS":"548.130","PERIOD":"95.592","MEAN_ANOMALY":"256.1932","CLASSIFICATION_TYPE":"U","COUNTRY_CODE":"US","GP_ID":"218890734","FILE":"3671048","LAUNCH_DATE":"2020-10-18","MEAN_MOTION":"15.06405217","TIME_SYSTEM":"UTC","DECAY_DATE":null,"OBJECT_TYPE":"PAYLOAD","SEMIMAJOR_AXIS":"6925.333","BSTAR":"0.00012650000000","EPHEMERIS_TYPE":"0","RA_OF_ASC_NODE":"224.0297","RCS_SIZE":"LARGE","OBJECT_ID":"2020-073BJ","CENTER_NAME":"EARTH","INCLINATION":"53.0542"},{"BSTAR":"0.00007749200000","EPHEMERIS_TYPE":"0","RA_OF_ASC_NODE":"199.2425","RCS_SIZE":"LARGE","OBJECT_ID":"2020-073BK","CENTER_NAME":"EARTH","INCLINATION":"53.0556","MEAN_MOTION":"15.06400885","TIME_SYSTEM":"UTC","DECAY_DATE":null,"OBJECT_TYPE":"PAYLOAD","SEMIMAJOR_AXIS":"6925.346","NORAD_CAT_ID":"46727","SITE":"AFETR","MEAN_ELEMENT_THEORY":"SGP4","APOAPSIS":"548.477","PERIOD":"95.592","MEAN_ANOMALY":"297.4485","CLASSIFICATION_TYPE":"U","GP_ID":"218890485","COUNTRY_CODE":"US","FILE":"3671048","LAUNCH_DATE":"2020-10-18","MEAN_MOTION_DDOT":"0.0000000000000","PERIAPSIS":"545.944","REF_FRAME":"TEME","TLE_LINE2":"2 46727  53.0556 199.2425 0001829  62.6690 297.4485 15.06400885116760","ECCENTRICITY":"0.00018290","ELEMENT_SET_NO":"999","OBJECT_NAME":"STARLINK-1830","REV_AT_EPOCH":"11676","MEAN_MOTION_DOT":"0.00000873","ARG_OF_PERICENTER":"62.6690","TLE_LINE1":"1 46727U 20073BK  22330.66981502  .00000873  00000-0  77492-4 0  9996","EPOCH":"2022-11-26T16:04:32.017728"},{"SEMIMAJOR_AXIS":"6925.339","OBJECT_TYPE":"PAYLOAD","DECAY_DATE":null,"TIME_SYSTEM":"UTC","MEAN_MOTION":"15.06403105","INCLINATION":"53.0533","CENTER_NAME":"EARTH","OBJECT_ID":"2020-074B","RCS_SIZE":"LARGE","RA_OF_ASC_NODE":"310.6077","EPHEMERIS_TYPE":"0","BSTAR":"0.00009036900000","EPOCH":"2022-11-26T08:45:18.770112","TLE_LINE1":"1 46740U 20074B   22330.36480058  .00001065  00000-0  90369-4 0  9991","ARG_OF_PERICENTER":"49.8664","MEAN_MOTION_DOT":"0.00001065","REV_AT_EPOCH":"11583","OBJECT_NAME":"STARLINK-1848","ELEMENT_SET_NO":"999","ECCENTRICITY":"0.00020790","TLE_LINE2":"2 46740  53.0533 310.6077 0002079  49.8664 310.2506 15.06403105115831","MEAN_MOTION_DDOT":"0.0000000000000","PERIAPSIS":"545.764","REF_FRAME":"TEME","FILE":"3670770","LAUNCH_DATE":"2020-10-24","GP_ID":"218857717","COUNTRY_CODE":"US","CLASSIFICATION_TYPE":"U","MEAN_ANOMALY":"310.2506","PERIOD":"95.592","APOAPSIS":"548.644","MEAN_ELEMENT_THEORY":"SGP4","SITE":"AFETR","NORAD_CAT_ID":"46740"},{"GP_ID":"218889485","COUNTRY_CODE":"US","CLASSIFICATION_TYPE":"U","LAUNCH_DATE":"2020-10-24","FILE":"3671048","PERIOD":"95.592","APOAPSIS":"548.549","MEAN_ELEMENT_THEORY":"SGP4","MEAN_ANOMALY":"299.3288","SITE":"AFETR","NORAD_CAT_ID":"46741","EPOCH":"2022-11-26T15:32:00.900960","TLE_LINE1":"1 46741U 20074C   22330.64723265  .00002719  00000-0  20135-3 0  9993","REV_AT_EPOCH":"11595","OBJECT_NAME":"STARLINK-1865","ARG_OF_PERICENTER":"60.7895","MEAN_MOTION_DOT":"0.00002719","PERIAPSIS":"545.860","REF_FRAME":"TEME","MEAN_MOTION_DDOT":"0.0000000000000","ECCENTRICITY":"0.00019410","ELEMENT_SET_NO":"999","TLE_LINE2":"2 46741  53.0570 304.3409 0001941  60.7895 299.3288 15.06402993115958","INCLINATION":"53.0570","OBJECT_ID":"2020-074C","CENTER_NAME":"EARTH","RCS_SIZE":"LARGE","RA_OF_ASC_NODE":"304.3409","EPHEMERIS_TYPE":"0","BSTAR":"0.00020135000000","OBJECT_TYPE":"PAYLOAD","SEMIMAJOR_AXIS":"6925.339","TIME_SYSTEM":"UTC","MEAN_MOTION":"15.06402993","DECAY_DATE":null},{"NORAD_CAT_ID":"46742","SITE":"AFETR","APOAPSIS":"411.819","MEAN_ELEMENT_THEORY":"SGP4","PERIOD":"92.731","MEAN_ANOMALY":"270.3729","CLASSIFICATION_TYPE":"U","COUNTRY_CODE":"US","GP_ID":"218890735","LAUNCH_DATE":"2020-10-24","FILE":"3671048","REF_FRAME":"TEME","PERIAPSIS":"404.874","MEAN_MOTION_DDOT":"0.0000000000000","TLE_LINE2":"2 46742  53.0537 282.6590 0005117  89.7866 270.3729 15.52872437116279","ECCENTRICITY":"0.00051170","ELEMENT_SET_NO":"999","OBJECT_NAME":"STARLINK-1872","REV_AT_EPOCH":"11627","MEAN_MOTION_DOT":"0.00060612","ARG_OF_PERICENTER":"89.7866","TLE_LINE1":"1 46742U 20074D   22330.86191842  .00060612  00000-0  95930-3 0  9999","EPOCH":"2022-11-26T20:41:09.751488","BSTAR":"0.00095930000000","EPHEMERIS_TYPE":"0","RA_OF_ASC_NODE":"282.6590","RCS_SIZE":"LARGE","OBJECT_ID":"2020-074D","CENTER_NAME":"EARTH","INCLINATION":"53.0537","MEAN_MOTION":"15.52872437","TIME_SYSTEM":"UTC","DECAY_DATE":null,"OBJECT_TYPE":"PAYLOAD","SEMIMAJOR_AXIS":"6786.481"},{"GP_ID":"218858470","COUNTRY_CODE":"US","CLASSIFICATION_TYPE":"U","FILE":"3670770","LAUNCH_DATE":"2020-10-24","MEAN_ELEMENT_THEORY":"SGP4","APOAPSIS":"548.248","PERIOD":"95.592","MEAN_ANOMALY":"299.6169","SITE":"AFETR","NORAD_CAT_ID":"46743","EPOCH":"2022-11-26T10:34:46.858368","TLE_LINE1":"1 46743U 20074E   22330.44082012  .00003216  00000-0  23461-3 0  9999","REV_AT_EPOCH":"11592","OBJECT_NAME":"STARLINK-1892","ARG_OF_PERICENTER":"60.4972","MEAN_MOTION_DOT":"0.00003216","PERIAPSIS":"546.124","REF_FRAME":"TEME","MEAN_MOTION_DDOT":"0.0000000000000","ELEMENT_SET_NO":"999","ECCENTRICITY":"0.00015340","TLE_LINE2":"2 46743  53.0548 305.2457 0001534  60.4972 299.6169 15.06409022115927","INCLINATION":"53.0548","OBJECT_ID":"2020-074E","CENTER_NAME":"EARTH","RCS_SIZE":"LARGE","RA_OF_ASC_NODE":"305.2457","EPHEMERIS_TYPE":"0","BSTAR":"0.00023461000000","OBJECT_TYPE":"PAYLOAD","SEMIMAJOR_AXIS":"6925.321","TIME_SYSTEM":"UTC","MEAN_MOTION":"15.06409022","DECAY_DATE":null},{"LAUNCH_DATE":"2020-10-24","FILE":"3671048","CLASSIFICATION_TYPE":"U","COUNTRY_CODE":"US","GP_ID":"218889235","MEAN_ANOMALY":"309.3272","APOAPSIS":"548.717","PERIOD":"95.591","MEAN_ELEMENT_THEORY":"SGP4","NORAD_CAT_ID":"46744","SITE":"AFETR","EPOCH":"2022-11-26T15:46:34.392000","TLE_LINE1":"1 46744U 20074F   22330.65734250  .00006267  00000-0  43905-3 0  9995","MEAN_MOTION_DOT":"0.00006267","ARG_OF_PERICENTER":"50.7917","OBJECT_NAME":"STARLINK-1894","REV_AT_EPOCH":"11595","TLE_LINE2":"2 46744  53.0533 304.2860 0002259  50.7917 309.3272 15.06420046115951","ELEMENT_SET_NO":"999","ECCENTRICITY":"0.00022590","PERIAPSIS":"545.588","REF_FRAME":"TEME","MEAN_MOTION_DDOT":"0.0000000000000","INCLINATION":"53.0533","CENTER_NAME":"EARTH","OBJECT_ID":"2020-074F","RA_OF_ASC_NODE":"304.2860","RCS_SIZE":"LARGE","BSTAR":"0.00043905000000","EPHEMERIS_TYPE":"0","SEMIMAJOR_AXIS":"6925.287","OBJECT_TYPE":"PAYLOAD","DECAY_DATE":null,"MEAN_MOTION":"15.06420046","TIME_SYSTEM":"UTC"},{"DECAY_DATE":null,"TIME_SYSTEM":"UTC","MEAN_MOTION":"16.28064318","SEMIMAJOR_AXIS":"6575.884","OBJECT_TYPE":"PAYLOAD","EPHEMERIS_TYPE":"0","BSTAR":"0.00401710000000","RCS_SIZE":"LARGE","RA_OF_ASC_NODE":"181.4021","CENTER_NAME":"EARTH","OBJECT_ID":"2020-074G","INCLINATION":"53.0322","ECCENTRICITY":"0.00065150","ELEMENT_SET_NO":"999","TLE_LINE2":"2 46745  53.0322 181.4021 0006515 263.9665 238.2787 16.28064318117694","PERIAPSIS":"193.465","REF_FRAME":"TEME","MEAN_MOTION_DDOT":"0.0000120240000","ARG_OF_PERICENTER":"263.9665","MEAN_MOTION_DOT":"0.15791710","REV_AT_EPOCH":"11769","OBJECT_NAME":"STARLINK-1898","TLE_LINE1":"1 46745U 20074G   22331.08149590  .15791710  12024-4  40171-2 0  9995","EPOCH":"2022-11-27T01:57:21.245760","SITE":"AFETR","NORAD_CAT_ID":"46745","MEAN_ANOMALY":"238.2787","APOAPSIS":"202.033","MEAN_ELEMENT_THEORY":"SGP4","PERIOD":"88.449","FILE":"3671052","LAUNCH_DATE":"2020-10-24","COUNTRY_CODE":"US","GP_ID":"218922643","CLASSIFICATION_TYPE":"U"},{"OBJECT_TYPE":"PAYLOAD","SEMIMAJOR_AXIS":"6925.340","TIME_SYSTEM":"UTC","MEAN_MOTION":"15.06402685","DECAY_DATE":null,"INCLINATION":"53.0555","OBJECT_ID":"2020-074H","CENTER_NAME":"EARTH","RCS_SIZE":"LARGE","RA_OF_ASC_NODE":"304.2178","EPHEMERIS_TYPE":"0","BSTAR":"-0.00000896750000","EPOCH":"2022-11-26T16:09:10.117728","TLE_LINE1":"1 46746U 20074H   22330.67303377 -.00000415  00000-0 -89675-5 0  9998","REV_AT_EPOCH":"11595","OBJECT_NAME":"STARLINK-1905","ARG_OF_PERICENTER":"52.1408","MEAN_MOTION_DOT":"-0.00000415","REF_FRAME":"TEME","PERIAPSIS":"545.651","MEAN_MOTION_DDOT":"0.0000000000000","ELEMENT_SET_NO":"999","ECCENTRICITY":"0.00022440","TLE_LINE2":"2 46746  53.0555 304.2178 0002244  52.1408 307.9783 15.06402685115954","COUNTRY_CODE":"US","GP_ID":"218890237","CLASSIFICATION_TYPE":"U","FILE":"3671048","LAUNCH_DATE":"2020-10-24","APOAPSIS":"548.759","PERIOD":"95.592","MEAN_ELEMENT_THEORY":"SGP4","MEAN_ANOMALY":"307.9783","SITE":"AFETR","NORAD_CAT_ID":"46746"}];
